     3.01           N: GNSS NAV DATA    M: Mixed            RINEX VERSION / TYPE
CONVBIN 2.4.3 Emlid                     20170723 110835 UTC PGM / RUN BY / DATE 
log: raw_201707231058                                       COMMENT             
format: u-blox                                              COMMENT             
GPSA   4.6566E-09  1.4901E-08 -5.9605E-08 -5.9605E-08       IONOSPHERIC CORR    
GPSB   7.9872E+04  6.5536E+04 -6.5536E+04 -3.9322E+05       IONOSPHERIC CORR    
GAL    0.0000E+00  0.0000E+00  0.0000E+00  0.0000E+00       IONOSPHERIC CORR    
QZSA   6.5193E-09  0.0000E+00 -6.5565E-07 -1.2517E-06       IONOSPHERIC CORR    
QZSB   9.8304E+04 -9.8304E+04 -1.0486E+06  8.3231E+06       IONOSPHERIC CORR    
GPUT -2.7939677238E-09-5.329070518E-15 147456 1959          TIME SYSTEM CORR    
GAUT  0.0000000000E+00 0.000000000E+00      0    0          TIME SYSTEM CORR    
    18                                                      LEAP SECONDS        
                                                            END OF HEADER       
R16 2017  7 23 11 15  0  .701639801264E-04  .909494701773E-12  .396000000000E+05
      .231486215820E+05 -.864712715149E+00  .465661287308E-08  .000000000000E+00
      .846295654297E+04 -.367425918579E+00  .000000000000E+00 -.100000000000E+01
     -.678796191406E+04 -.340854263306E+01  .372529029846E-08  .000000000000E+00
R20 2017  7 23 11 15  0 -.299885869026E-03 -.181898940355E-11  .396000000000E+05
      .190669809570E+05 -.133624553680E+01  .465661287308E-08  .000000000000E+00
     -.113301386719E+05  .110274219513E+01  .279396772385E-08  .200000000000E+01
      .125516870117E+05  .302978134155E+01  .000000000000E+00  .000000000000E+00
R11 2017  7 23 11 15  0 -.623706728220E-05  .000000000000E+00  .396000000000E+05
     -.986008056641E+04  .265277671814E+01  .000000000000E+00  .000000000000E+00
     -.122270756836E+05  .733358383179E+00  .931322574615E-09  .000000000000E+00
      .201296352539E+05  .174132919312E+01 -.279396772385E-08  .000000000000E+00
R 4 2017  7 23 11 15  0  .224102288485E-03  .909494701773E-12  .396000000000E+05
      .749282373047E+04  .146857261658E+00  .372529029846E-08  .000000000000E+00
      .243908398438E+05 -.618848800659E-01 -.186264514923E-08  .600000000000E+01
      .136409179687E+03  .356654071808E+01  .931322574615E-09  .000000000000E+00
S23 2017  7 23 11  1  4  .000000000000E+00  .000000000000E+00  .396670000000E+05
      .359446000000E+05  .000000000000E+00  .000000000000E+00  .100000000000E+01
      .220441400000E+05  .000000000000E+00  .000000000000E+00  .819200000000E+04
      .000000000000E+00  .000000000000E+00  .000000000000E+00  .000000000000E+00
E 1 2017  7 23 10 50  0 -.120825367048E-03 -.873967564985E-11  .000000000000E+00
      .650000000000E+02  .186843750000E+03  .242795827706E-08 -.818853695469E+00
      .868551433086E-05  .270597054623E-03  .152811408043E-04  .544062030411E+04
      .390000000000E+05 -.279396772385E-07  .175066144048E+00  .154599547386E-06
      .997488900274E+00  .272812500000E+02  .310600911114E+01 -.514199989922E-08
     -.105361531588E-09  .100000000000E+01  .195900000000E+04  .000000000000E+00
      .312000000000E+01  .000000000000E+00 -.465661287308E-08 -.535510480404E-08
      .396790000000E+05  .000000000000E+00
E 3 2017  7 23 10 50  0  .834190286696E-04 -.521538368048E-11  .000000000000E+00
      .650000000000E+02  .548750000000E+02  .374551315851E-08  .234889036551E+01
      .239536166191E-05  .344260362908E-03  .475533306599E-05  .544060966301E+04
      .390000000000E+05  .186264514923E-07 -.191129350434E+01  .931322574615E-08
      .952038265038E+00  .234093750000E+03 -.113389889114E+01 -.591774649789E-08
      .576809740727E-09  .100000000000E+01  .195900000000E+04  .000000000000E+00
      .312000000000E+01  .455000000000E+03 -.186264514923E-08 -.232830643654E-08
      .396790000000E+05  .000000000000E+00
S36 2017  7 23 11  2  8  .000000000000E+00  .000000000000E+00  .397290000000E+05
      .420036880000E+05  .000000000000E+00  .000000000000E+00  .100000000000E+01
      .367484696000E+04  .000000000000E+00  .000000000000E+00  .819200000000E+04
      .000000000000E+00  .000000000000E+00  .000000000000E+00  .000000000000E+00
S23 2017  7 23 11  3 44  .000000000000E+00  .000000000000E+00  .398270000000E+05
      .359446000000E+05  .000000000000E+00  .000000000000E+00  .100000000000E+01
      .220441400000E+05  .000000000000E+00  .000000000000E+00  .819200000000E+04
      .000000000000E+00  .000000000000E+00  .000000000000E+00  .000000000000E+00
S28 2017  7 23 11  4 32 -.372529029846E-07 -.272848410532E-11  .398460000000E+05
      .513119096000E+04  .783750000000E-03  .875000000000E-07  .000000000000E+00
      .418557041600E+05  .532500000000E-03 -.500000000000E-07  .409600000000E+04
     -.571008000000E+02 -.164000000000E-03  .312500000000E-06  .000000000000E+00
S36 2017  7 23 11  5 20  .000000000000E+00  .000000000000E+00  .399300000000E+05
      .420036880000E+05  .000000000000E+00  .000000000000E+00  .100000000000E+01
      .367484696000E+04  .000000000000E+00  .000000000000E+00  .819200000000E+04
      .000000000000E+00  .000000000000E+00  .000000000000E+00  .000000000000E+00
S23 2017  7 23 11  6 24  .000000000000E+00  .000000000000E+00  .399870000000E+05
      .359446000000E+05  .000000000000E+00  .000000000000E+00  .100000000000E+01
      .220441400000E+05  .000000000000E+00  .000000000000E+00  .819200000000E+04
      .000000000000E+00  .000000000000E+00  .000000000000E+00  .000000000000E+00
S28 2017  7 23 11  8 48 -.377185642719E-07 -.181898940355E-11  .401030000000E+05
      .513139448000E+04  .806250000000E-03  .875000000000E-07  .000000000000E+00
      .418558388800E+05  .520625000000E-03 -.500000000000E-07  .409600000000E+04
     -.571324000000E+02 -.880000000000E-04  .312500000000E-06  .000000000000E+00
S36 2017  7 23 11  8 48  .000000000000E+00  .000000000000E+00  .401300000000E+05
      .420036880000E+05  .000000000000E+00  .000000000000E+00  .100000000000E+01
      .367484696000E+04  .000000000000E+00  .000000000000E+00  .819200000000E+04
      .000000000000E+00  .000000000000E+00  .000000000000E+00  .000000000000E+00
